STARLINK-2243
1 28013C 21024AN  21325.07395844  .00003913  00000-0  26227-3 0  3259
2 28013  53.0513 147.9033 0001894  78.1097 151.8922 15.06381436    12
